OBJECT_NAME,OBJECT_ID,EPOCH,MEAN_MOTION,ECCENTRICITY,INCLINATION,RA_OF_ASC_NODE,ARG_OF_PERICENTER,MEAN_ANOMALY,EPHEMERIS_TYPE,CLASSIFICATION_TYPE,NORAD_CAT_ID,ELEMENT_SET_NO,REV_AT_EPOCH,BSTAR,MEAN_MOTION_DOT,MEAN_MOTION_DDOT
STARLINK-32537,2024-207M,2026-06-29T13:05:03.342912,15.27587664,.0003714,42.9986,13.9508,278.0837,81.9593,0,U,61923,999,9178,.61356E-3,.16666E-3,0
STARLINK-32564,2024-207N,2026-06-29T12:55:48.400896,15.27596938,.000189,43.0010,13.9056,269.5843,90.4792,0,U,61924,999,9178,.10259E-2,.28091E-3,0
STARLINK-32536,2024-207P,2026-06-29T13:10:36.432192,15.27591301,.0004074,43.0026,13.9808,279.8940,80.1452,0,U,61925,999,9178,.76627E-3,.20894E-3,0
STARLINK-32624,2024-207Q,2026-06-29T12:56:17.680128,15.27584302,.0000947,42.9988,9.5892,260.7449,99.3296,0,U,61926,999,9183,.27109E-3,.7206E-4,0
STARLINK-32622,2024-207R,2026-06-28T21:25:49.898496,15.27596320,.00014477,43.0008,13.3414,275.7150,84.3536,0,U,61927,999,9173,.66528336E-3,.18099E-3,0
STARLINK-32620,2024-207S,2026-06-29T12:15:47.875392,15.27595732,.0001097,43.0031,10.2368,255.2488,104.8242,0,U,61928,999,9182,.78632E-3,.21449E-3,0
STARLINK-32609,2024-207T,2026-06-29T13:38:50.856288,15.27600156,.0001339,43.0029,9.8094,200.0147,160.0652,0,U,61929,999,9183,.90503E-3,.24741E-3,0
STARLINK-32567,2024-207U,2026-06-29T12:25:44.565024,15.27587624,.0001159,43.0013,6.8126,282.0806,77.9916,0,U,61930,999,9245,.59648E-3,.16191E-3,0
STARLINK-32420,2024-207V,2026-06-28T21:36:56.013120,15.27587176,.0000849,42.9998,13.3972,292.7262,67.3500,0,U,61931,999,9173,.36762948E-3,.987E-4,0
STARLINK-32354,2024-207W,2026-06-29T12:50:15.376416,15.27588054,.0001148,43.0037,13.8752,212.0250,148.0532,0,U,61932,999,9227,.48673E-3,.13159E-3,0
STARLINK-32361,2024-207X,2026-06-29T12:52:49.069056,15.27480377,.0000947,42.9990,10.4125,307.9944,52.0822,0,U,61933,999,9182,-.12873E-2,-.35408E-3,0
STARLINK-32500,2024-207Z,2026-06-29T12:33:35.984160,15.27591542,.0001196,42.9993,13.7872,208.1625,151.9162,0,U,61935,999,9178,.53866E-3,.14595E-3,0
HAIYANG 4-01,2024-208A,2026-06-29T13:16:31.890432,14.73310868,.0002439,98.0029,188.1408,104.2880,255.8599,0,U,61936,999,8726,.80013E-4,.468E-5,0
STARLINK-11407 [DTC],2024-209A,2026-06-29T06:07:47.836992,15.69710512,.0001126,53.1568,181.0583,107.1792,252.9350,0,U,61939,999,9426,.15689E-2,.193997E-2,0
STARLINK-11337 [DTC],2024-209B,2026-06-29T06:00:44.070048,15.69790897,.0000948,53.1563,181.0261,124.5398,235.5709,0,U,61940,999,9424,.15468E-2,.191844E-2,0
STARLINK-11353 [DTC],2024-209C,2026-06-29T05:53:40.303968,15.69708400,.0001283,53.1565,180.9927,63.9202,296.1947,0,U,61941,999,9420,.91469E-3,.11172E-2,0
STARLINK-11320 [DTC],2024-209D,2026-06-29T11:53:29.066784,15.69758584,.0001178,53.1563,180.4392,120.5469,239.5665,0,U,61942,999,9423,.15439E-2,.191205E-2,0
STARLINK-11425 [DTC],2024-209E,2026-06-29T07:11:22.325280,15.69743871,.0001048,53.1566,181.3486,83.2677,276.8460,0,U,61943,999,9420,.84214E-3,.102853E-2,0
STARLINK-11422 [DTC],2024-209F,2026-06-29T07:04:18.693120,15.69724615,.0001206,53.1561,181.3152,81.6005,278.5150,0,U,61944,999,9420,.98799E-3,.120938E-2,0
STARLINK-11421 [DTC],2024-209G,2026-06-29T06:57:14.548608,15.69781795,.0000937,53.1569,181.2832,141.1242,218.9843,0,U,61945,999,9420,.1086E-2,.133516E-2,0
STARLINK-11410 [DTC],2024-209H,2026-06-29T06:50:10.912992,15.69711429,.0001083,53.1562,181.2491,52.6339,307.4777,0,U,61946,999,9424,.10054E-2,.123038E-2,0
STARLINK-11390 [DTC],2024-209J,2026-06-29T11:18:10.371168,15.69797865,.000109,53.1566,180.2760,60.0224,300.0902,0,U,61947,999,9427,.8238E-3,.100801E-2,0
STARLINK-11414 [DTC],2024-209K,2026-06-29T10:49:54.499008,15.69746295,.0001164,53.1556,180.1452,141.8180,218.2920,0,U,61948,999,9427,.11384E-2,.139887E-2,0
STARLINK-11424 [DTC],2024-209L,2026-06-29T12:28:39.206208,15.69762634,.0002056,53.1570,179.8646,159.0638,201.0464,0,U,61949,999,9424,.15633E-2,.193716E-2,0
STARLINK-11423 [DTC],2024-209M,2026-06-29T11:11:06.281088,15.69732342,.0001107,53.1567,180.2467,86.4105,273.7039,0,U,61950,999,9427,.99072E-3,.121317E-2,0
STARLINK-11395 [DTC],2024-209N,2026-06-28T15:12:09.210816,15.69757510,.0001212,53.1561,184.2905,80.8260,279.2895,0,U,61951,999,9410,.11193219E-2,.137557E-2,0
STARLINK-32572,2024-209P,2026-06-28T18:00:23.941440,15.30234186,.00010996,53.1597,346.3372,89.6338,270.4789,0,U,61952,999,9190,.14594852E-2,.43164E-3,0
STARLINK-32585,2024-209Q,2026-06-28T21:55:43.940064,15.49308880,.00013869,53.1589,339.5265,78.4665,281.6500,0,U,61953,999,9201,.12026737E-2,.67015E-3,0
STARLINK-32574,2024-209R,2026-06-28T20:19:25.920192,15.49329244,.00010461,53.1591,339.8193,84.6996,275.4132,0,U,61954,999,9202,.10212848E-2,.56806E-3,0
STARLINK-32583,2024-209S,2026-06-28T20:56:39.923520,15.49328310,.00010207,53.1583,339.2668,85.6887,274.4239,0,U,61955,999,9202,.11805777E-2,.6581E-3,0
STARLINK-32273,2024-209T,2026-06-28T21:16:05.115648,15.30183780,.0000751,53.1595,345.7569,80.9349,279.1737,0,U,61956,999,9192,-.59212109E-4,-.2111E-4,0
STARLINK-32359,2024-209U,2026-06-28T17:34:25.194720,15.49326289,.00008484,53.1583,339.8134,78.2144,281.8960,0,U,61957,999,9201,.14502092E-2,.81097E-3,0
STARLINK-32566,2024-209V,2026-06-29T12:00:02.998944,15.40169839,.0001136,53.1610,335.9685,84.1914,328.7251,0,U,61958,999,579,-.41889E-1,-.1537363E-1,0
STARLINK-32499,2024-210A,2026-06-27T23:45:53.203968,15.27595237,.00005419,43.0029,276.5082,308.1274,51.9528,0,U,61959,999,9179,-.37752052E-3,-.1064E-3,0
STARLINK-32372,2024-210B,2026-06-27T16:06:12.267648,15.27592757,.00020071,43.0033,278.4108,278.5388,81.5236,0,U,61960,999,9160,.56082625E-3,.15209E-3,0
STARLINK-32452,2024-210C,2026-06-28T22:09:31.479264,15.27547923,.00014757,42.9992,264.5511,266.2043,93.8640,0,U,61961,999,9200,.10100168E-2,.27608E-3,0
STARLINK-32458,2024-210D,2026-06-28T15:17:17.320992,15.27575997,.00014062,42.9990,258.9154,274.3480,85.7211,0,U,61962,999,9204,.19848404E-3,.5203E-4,0
STARLINK-32487,2024-210E,2026-06-28T22:37:44.263488,15.27587226,.00006954,42.9997,271.6124,322.3061,37.7742,0,U,61963,999,9192,.89070573E-3,.24334E-3,0
STARLINK-32513,2024-210F,2026-06-28T16:34:47.008704,15.27598428,.00014534,43.0005,258.4629,286.6152,73.4540,0,U,61964,999,9205,.47932772E-3,.12959E-3,0
STARLINK-32514,2024-210G,2026-06-28T22:15:04.349088,15.27581672,.0001181,43.0000,264.5778,284.3395,75.7325,0,U,61965,999,9200,.74537584E-3,.20307E-3,0
STARLINK-32498,2024-210H,2026-06-28T22:31:03.107424,15.27582436,.00023335,43.0029,256.8731,268.9702,91.0882,0,U,61966,999,9209,.24473152E-3,.6479E-4,0
STARLINK-32518,2024-210J,2026-06-28T22:52:01.633152,15.27573371,.00023092,43.0034,264.5780,270.5276,89.5311,0,U,61967,999,9187,.85760518E-3,.23408E-3,0
STARLINK-32471,2024-210K,2026-06-28T14:09:29.660832,15.27593569,.00016605,42.9998,266.3489,270.2691,89.7970,0,U,61968,999,9196,.53706737E-3,.14552E-3,0
STARLINK-32450,2024-210L,2026-06-28T22:05:49.324128,15.27587355,.00011453,42.9986,264.5309,286.8152,73.2574,0,U,61969,999,9187,.33469447E-3,.8961E-4,0
STARLINK-32613,2024-210M,2026-06-28T23:03:38.677248,15.27566316,.00006424,42.9992,271.7508,284.0158,76.0622,0,U,61970,999,9193,.75263872E-3,.20498E-3,0
STARLINK-32610,2024-210N,2026-06-28T22:52:31.988928,15.27585415,.00011629,42.9982,271.6913,273.8379,86.2339,0,U,61971,999,9193,.11026478E-3,.2774E-4,0
STARLINK-32612,2024-210P,2026-06-28T22:58:05.273472,15.27589538,.00012764,42.9989,271.7197,265.3837,94.6869,0,U,61972,999,9189,.31241637E-3,.8347E-4,0
STARLINK-32601,2024-210Q,2026-06-28T23:23:47.009760,15.27587262,.00013525,43.0043,270.9937,269.8016,90.2680,0,U,61973,999,9190,.80997474E-3,.22098E-3,0
STARLINK-32593,2024-210R,2026-06-28T23:12:53.318592,15.27586811,.00010771,43.0009,271.7998,286.5879,73.4854,0,U,61974,999,9189,.32966655E-3,.8822E-4,0
STARLINK-32586,2024-210S,2026-06-28T22:32:11.727168,15.27574295,.00015684,43.0004,271.5839,275.7293,84.3380,0,U,61975,999,9189,.62094712E-3,.16861E-3,0
STARLINK-32611,2024-210T,2026-06-28T14:35:51.067680,15.27594660,.00018611,43.0003,273.4014,269.4366,90.6273,0,U,61976,999,9184,.75014667E-3,.20447E-3,0
STARLINK-32607,2024-210U,2026-06-28T22:46:58.809792,15.27562193,.00014494,43.0006,271.6594,265.6006,94.4680,0,U,61977,999,9193,.60481612E-3,.16409E-3,0
STARLINK-32606,2024-210V,2026-06-28T17:21:57.047616,15.27602547,.00015349,43.0031,272.5494,290.6823,69.3864,0,U,61978,999,9186,.49283081E-3,.13333E-3,0
STARLINK-32578,2024-210W,2026-06-28T17:23:48.109632,15.27603277,.00017087,42.9993,272.5604,261.5367,98.5291,0,U,61979,999,9190,.69128183E-3,.18823E-3,0
STARLINK-32517,2024-210X,2026-06-28T23:09:11.657664,15.27574328,.00010879,43.0008,271.7785,280.6045,79.4685,0,U,61980,999,9184,.54960022E-3,.1489E-3,0
STARLINK-32522,2024-210Y,2026-06-28T14:30:17.721792,15.27596530,.00016391,43.0006,273.3744,268.6090,91.4574,0,U,61981,999,9184,.56513821E-3,.15329E-3,0
STARLINK-32560,2024-210Z,2026-06-28T15:44:06.159840,15.27598204,.00013414,43.0017,272.9014,306.9422,53.1307,0,U,61982,999,9185,.70676175E-3,.19248E-3,0
OPTUS-X (ADS-01),2024-212A,2026-06-29T11:26:38.181984,1.00271752,.0002351,0.0168,30.0167,101.3147,114.2693,0,U,62006,999,588,0,-.132E-5,0
STARLINK-11433 [DTC],2024-213A,2026-06-29T09:42:54.842688,15.69708978,.0001204,53.1561,210.3724,64.5416,295.5726,0,U,62008,999,9246,.97084E-3,.118719E-2,0
STARLINK-11262 [DTC],2024-213B,2026-06-29T07:36:03.402720,15.69899621,.0000134,53.1555,211.2643,23.7342,336.3682,0,U,62009,999,9244,.18651E-2,.233687E-2,0
STARLINK-11326 [DTC],2024-213C,2026-06-29T13:14:32.172000,15.69724294,.0001197,53.1560,209.8749,78.5931,281.5221,0,U,62010,999,9248,.84679E-3,.103346E-2,0
STARLINK-11330 [DTC],2024-213D,2026-06-29T09:00:40.804128,15.69715707,.0001432,53.1554,210.9143,31.4301,328.6802,0,U,62011,999,9245,.10826E-2,.132714E-2,0
STARLINK-11363 [DTC],2024-213E,2026-06-29T13:00:24.710688,15.69731745,.0001316,53.1566,209.8121,55.8296,304.2846,0,U,62012,999,9248,.87594E-3,.107005E-2,0
STARLINK-11377 [DTC],2024-213F,2026-06-29T09:49:58.707264,15.69707746,.0001079,53.1560,210.4114,89.1898,270.9243,0,U,62013,999,9246,.98902E-3,.120979E-2,0
